name,email,phone,blood_group,latitude,longitude
John Doe,john.doe@example.com,9949317185,A+,13.085511724252834,80.26615634257095
Jane Smith,jane.smith@example.com,9199814456,O+,13.085760157305687,80.26175090856559
Rahul Kumar,rahul.kumar@example.com,9862897907,AB+,13.084933748056395,80.27700130622404
Priya Reddy,priya.reddy@example.com,9205989530,A-,13.081643431914891,80.27544349423121
Kumar Ramesh,kumar.ramesh@example.com,9517263474,O-,13.073590118628609,80.26247680630983
Anitha Patel,anitha.patel@example.com,9848291860,A-,13.079308021361411,80.27604428358707
Vikram Singh,vikram.singh@example.com,9542915948,A+,13.084874395536108,80.2607649604694
Deepa Nair,deepa.nair@example.com,9723516294,AB-,13.086428120751098,80.26072427330877
Sanjay Menon,sanjay.menon@example.com,9337117368,O-,13.077390996091067,80.27030755209098
Rani Iyer,rani.iyer@example.com,9377785289,AB+,13.078327493456067,80.26661315977688
Arjun Das,arjun.das@example.com,9431344218,AB+,13.092154283078589,80.26145802123568
Meena Sharma,meena.sharma@example.com,9326912302,A-,13.077796247742304,80.26222032499669
Suresh Pillai,suresh.pillai@example.com,9249344584,B+,13.075229562385447,80.27715960951785
Kavya Rao,kavya.rao@example.com,9610005914,B-,13.0841653469739,80.27886848606498
Venkatesh Kumar,venkatesh.kumar@example.com,9500546697,AB+,13.078545178069335,80.27763043707505
Latha Raj,latha.raj@example.com,9426633056,AB-,13.086886985927231,80.26085985505749
Nitin Gupta,nitin.gupta@example.com,9323522781,AB-,13.083460112720106,80.27261575423539
Divya Varma,divya.varma@example.com,9248745468,B-,13.090538777614887,80.26246057640024
Rajesh Iyer,rajesh.iyer@example.com,9920068997,AB+,13.084266304868212,80.26250156379116
Sita Ram,sita.ram@example.com,9282488386,B+,13.087170057105377,80.27240020335832
Manoj Kumar,manoj.kumar@example.com,9991114685,A+,13.087883805550021,80.26564821103786
Preeti Singh,preeti.singh@example.com,9889309454,O+,13.081016415824928,80.26203058141424
Ravi Patel,ravi.patel@example.com,9257422554,B-,13.08903162630226,80.27136415536984
Sneha Das,sneha.das@example.com,9860077482,O-,13.087874059769488,80.26404950393245
Aravind Reddy,aravind.reddy@example.com,9844630039,A-,13.080811481400056,80.26236879040518
Sunita Rao,sunita.rao@example.com,9852084158,AB+,13.086446967459977,80.27602813858482
Dinesh Nair,dinesh.nair@example.com,9134097323,O+,13.092157789602052,80.2734381021924
Anjali Menon,anjali.menon@example.com,9158522722,O+,13.075620555390747,80.26583575550897
Prakash Kumar,prakash.kumar@example.com,9745198726,A-,13.080372267242833,80.26798496215626
Rekha Iyer,rekha.iyer@example.com,9673939356,B+,13.078101781852515,80.27057313669383
Vijay Sharma,vijay.sharma@example.com,9173124078,B-,13.0853434674844,80.27911278417076
Meera Reddy,meera.reddy@example.com,9027536416,O-,13.08928947413949,80.27905201327113
Harish Patel,harish.patel@example.com,9061015767,B-,13.080420444652743,80.27125575778476
Kavitha Rao,kavitha.rao@example.com,9237702801,O-,13.075405392304367,80.27717179513775
Rohit Singh,rohit.singh@example.com,9451841692,AB+,13.081110402483231,80.27313465605101
Aishwarya Nair,aishwarya.nair@example.com,9079832630,A-,13.079475187932896,80.27999872257234
Tarun Das,tarun.das@example.com,9157386739,A+,13.087563874585847,80.26077505784983
Sangeetha Pillai,sangeetha.pillai@example.com,9764690843,B+,13.08382752060022,80.26330762531896
Abhinav Kumar,abhinav.kumar@example.com,9384088158,B-,13.081452598998775,80.26248082249413
Divya Reddy,divya.reddy@example.com,9596753943,O+,13.074380744875235,80.2636069742612
Krishna Iyer,krishna.iyer@example.com,9343687110,A+,13.076506715671936,80.26563432610257
Anita Sharma,anita.sharma@example.com,9218675415,A-,13.080849643607452,80.27747959544061
Sanjeev Patel,sanjeev.patel@example.com,9174997817,AB-,13.074128397726325,80.2781699982416
Radhika Rao,radhika.rao@example.com,9814924336,O-,13.07730422827928,80.26263425886121
Manoj Singh,manoj.singh@example.com,9355038817,AB+,13.081952377003617,80.2691536526892
Nandini Varma,nandini.varma@example.com,9936456185,AB+,13.08458637752632,80.27410743642855
Shyam Kumar,shyam.kumar@example.com,9916623852,A-,13.090957127297209,80.27731554644924
Lekha Reddy,lekha.reddy@example.com,9620874571,B+,13.07487917025439,80.27647595424405
Praveen Menon,praveen.menon@example.com,9513913160,O-,13.092316170956764,80.27925699661891
Geetha Iyer,geetha.iyer@example.com,9201259807,B+,13.076747080240759,80.27349948905768
